GLOBALSTAR M057         
1 25943U 99058A   25271.75386338 -.00000084  00000+0  79107-4 0  9994
2 25943  51.9995  54.2784 0002237 209.4731 150.5992 12.24827136179625
GLOBALSTAR M059         
1 25944U 99058B   25272.21620311 -.00000037  00000+0  61478-3 0  9998
2 25944  52.0013 285.7423 0000380 130.1058 309.2265 11.99988503586534
GLOBALSTAR M056         
1 25945U 99058C   25272.21611144 -.00000100  00000+0 -14301-3 0  9998
2 25945  51.9957 285.0343 0001080  34.8117  44.7184 12.04779316175169
GLOBALSTAR M031         
1 25946U 99058D   25272.07143891 -.00000056  00000+0  35299-3 0  9990
2 25946  51.9951 171.5352 0002053  42.1728  66.9443 12.16039976177186
GLOBALSTAR M039         
1 25961U 99062A   25272.12829081 -.00000063  00000+0  22701-3 0  9992
2 25961  51.9856 312.1326 0002514 211.3386 148.7331 12.62332992193349
GLOBALSTAR M034         
1 25962U 99062B   25271.95531891 -.00000063  00000+0  27899-3 0  9995
2 25962  51.9851 101.6480 0013320 235.3554 275.0789 11.79448456150633
GLOBALSTAR M029         
1 25963U 99062C   25272.07949640 -.00000062  00000+0  29667-3 0  9999
2 25963  51.9794 174.0567 0002573 340.0524 158.1374 11.99901400181594
GLOBALSTAR M061         
1 25964U 99062D   25272.26512096 -.00000060  00000+0  33895-3 0  9998
2 25964  51.9788 286.2632 0005935 159.4892 285.9274 11.76777133133439
